GLOBALSTAR M075         
1 37192U 10054E   23249.79983420 -.00000087  00000+0  94014-4 0  9991
2 37192  51.9976 358.7794 0000464  91.2867  79.5777 12.62260822593999
GLOBALSTAR M073         
1 37193U 10054F   23249.79983483 -.00000084  00000+0  11045-3 0  9990
2 37193  52.0044 272.1057 0000321  98.7677  71.8821 12.62267257595820
GLOBALSTAR M083         
1 37739U 11033A   23249.94139243 -.00000111  00000+0 -41867-4 0  9996
2 37739  51.9843 221.2901 0000127 119.1734 276.0999 12.62268664564868
GLOBALSTAR M088         
1 37740U 11033B   23249.90979101 -.00000094  00000+0  55664-4 0  9998
2 37740  51.9728 127.4252 0000427  51.0735 320.1436 12.62265271560400
GLOBALSTAR M091         
1 37741U 11033C   23249.84425002 -.00000103  00000+0  62731-5 0  9993
2 37741  51.9991  90.0176 0000460  66.9982 305.6427 12.62266075561186
GLOBALSTAR M085         
1 37742U 11033D   23249.67254206 -.00000103  00000+0  68065-5 0  9997
2 37742  51.9881  42.1512 0000543  96.5432 276.3639 12.62266631561679
GLOBALSTAR M081         
1 37743U 11033E   23249.64544817 -.00000108  00000+0 -26110-4 0  9995
2 37743  51.9970  44.6207 0000534  70.4741  58.8481 12.62270634561813
GLOBALSTAR M089         
1 37744U 11033F   23249.77206899 -.00000097  00000+0  35205-4 0  9996
2 37744  51.9959 358.5876 0000802  83.9409  80.7047 12.62266322562674
